#dP2018  8 28  0  0  0.00000000      96 __u+U IGS08 FIT  IAC
## 2016 172800.00000000   900.00000000 58358 0.0000000000000
+   87   C01C02C03C04C05C06C07C08C09C10C11C12C13C14E01E02E03
+        E04E05E07E08E09E11E12E14E18E19E24E26E30G01G02G03G05
+        G06G07G08G09G10G11G12G13G14G15G16G17G18G19G20G21G22
+        G23G24G25G26G27G28G29G30G31G32J01J02J03R01R02R03R04
+        R05R07R08R09R10R11R13R14R15R16R17R18R19R20R21R22R23
+        R24R26  0  0  0  0  0  0  0  0  0  0  0  0  0  0  0
++        13 12  0 12 12  8  8  8  8  8  7  7  8  7  7  7  7
++         7  7  7  7  7  7  7  7  7  7  7  7  7  3  3  3  3
++         3  3  3  3  3  3  3  3  3  3  3  3  3  3  3  3  3
++         3  3  3  3  3  3  3  3  3  3 10 11 11  5  5  5  5
++         7  5  5  5  5  5  5  5  5  5  5  7  5  5  5  5  5
++         5  8  0  0  0  0  0  0  0  0  0  0  0  0  0  0  0
%c M  cc GPS ccc cccc cccc cccc cccc ccccc ccccc ccccc ccccc
%c cc cc ccc ccc cccc cccc cccc cccc ccccc ccccc ccccc ccccc
%f  1.2500000  1.025000000  0.00000000000  0.000000000000000
%f  0.0000000  0.000000000  0.00000000000  0.000000000000000
%i    0    0    0    0      0      0      0      0         0
%i    0    0    0    0      0      0      0      0         0
/* INFORMATION & ANALYSIS CENTER (IAC)            FINAL DATA
/* S/V CLOCKS ARE ALIGNED TO GPS & GLONASS TIME RESPECTIVELY
/* USING THE BROADCAST EPHEMERIS                            
/* PCV:IGS14_2000 OL/AL:FES2004  NONE     YN ORB:CoN CLK:CoN
*  2018 08 28 11 30  0.00000000
PC01 -32305.322816  27096.402028  -1051.594101    527.909122
PC02   4341.634498  41926.267805    712.419653   -134.770962
PC03      0.000000      0.000000      0.000000 999999.999999
PC04 -39627.301481  14372.745532   -695.715227   -132.052142
PC05  21875.495411  36045.364958    704.373499    -81.956614
PC06  -7754.948816  24996.762155  33400.721377    255.876202
PC07 -24279.789289  27633.378608 -20896.926035      4.003192
PC08 -13959.239163  37605.791108 -12479.977157    502.625685
PC09   5473.738656  31741.551012  27561.189962     64.836119
PC10 -10259.317708  28703.737056 -29143.189843    -27.052969
PC11 -17216.632396 -11620.168362 -18624.112245   -655.098599
PC12 -11114.590803 -25530.373373  -2474.824654    580.480949
PC13  -5413.217946  41660.399211   1242.987894   -249.046001
PC14 -26495.050700  -7493.656711  -4318.957700    285.863121
PE01 -26852.576925  11714.115491   4287.331303   -422.516639
PE02  26836.000707 -11742.275861  -4238.963358     25.269591
PE03  22950.483608  -1601.622910 -18611.814679    -70.711715
PE04  -6479.005270  16031.660078  24033.422456   -105.545220
PE05  26063.084321  13847.057017  -2253.983925    203.649718
PE07 -13929.481296 -21131.760453 -15346.020542    -28.048412
PE08   6220.120115 -15979.100086 -24121.271802   6514.358139
PE09  14113.796849  20928.295875  15457.687451   6693.178582
PE11   5648.504438  27717.661090   8728.910455   4280.951825
PE12  -7239.253973  26724.951557 -10487.400877   4926.975739
PE14 -10340.493299 -22941.280942   4313.914519   6528.399543
PE18   1617.564680  27125.288280 -15460.083405   5949.379558
PE19 -23893.885917      6.770309  17477.461607    -12.779702
PE24   3435.224854  16415.765704 -24394.333519   6523.347203
PE26 -14897.192879 -12648.090239 -22238.612499   5542.566282
PE30  16616.358695 -19886.060243  14298.582422   5559.409480
PG01  13757.910548 -21888.504695   5177.498776    -81.476894
PG02 -16661.142617   4721.686736 -19510.683514     14.876778
PG03  15996.268255 -13260.232398 -16536.999682    128.226553
PG05 -26533.275886   2595.891064  -1094.178313     -2.637846
PG06 -10237.100611 -12447.226076 -21079.964773    370.866469
PG07   3798.091178 -24282.656551   9676.760384    134.028240
PG08  14199.099451  -5883.063606  21719.250557   -113.186049
PG09  -3339.762463 -21899.615158 -14674.330628    509.249658
PG10  14628.809123  11701.697539  18935.612394    184.959179
PG11  10143.873088 -20441.822672  13184.885665   -721.945275
PG12 -20883.885967   9657.399386 -13304.196249    310.957818
PG13 -17338.197103  -3178.077016  19764.811579    -90.220636
PG14  18181.840326  16778.587278  -9591.089655    -97.510599
PG15 -11634.097096  10702.768564  21113.443410   -347.398071
PG16  26668.381429   1061.153628  -2468.575414     11.612784
PG17 -14736.798431 -22163.595998   -356.480436    -62.269697
PG18  16256.266464 -16028.817942  12958.953176     50.767987
PG19 -17989.630178 -16388.677110 -10768.734436   -407.837236
PG20   4478.717189  15216.097293  21185.948435    514.896398
PG21    995.371105  23592.213129  12999.106074   -345.811407
PG22  22101.986382 -10991.951526  -9534.145433   -502.564356
PG23   5824.999262 -16181.869151 -19831.171173   -211.978052
PG24 -14982.072017  19624.366884   9264.861074    -54.580770
PG25  -6856.287743  15010.281012 -20940.600967   -638.422255
PG26  23062.629710   5686.347204 -12032.292620    -37.798179
PG27  19050.863987   5976.655284  17560.699932    350.207303
PG28 -10921.442230 -13528.028760  20685.955184    741.045124
PG29   1206.949535  21371.494807 -15750.979201    387.477691
PG30  -4281.293195 -19536.149828  17410.912283     31.735890
PG31  11721.412358  10167.981026 -21476.679836     97.541857
PG32  16469.884550  20864.809836  -1203.027908   -439.732843
PJ01 -26319.344465  26512.987734  24721.601851   -125.646769
PJ02 -34525.337346  23893.200985   7577.613866     -6.328459
PJ03 -21148.227845  20829.544937 -25343.053494     -0.832111
PR01  24110.100169   5288.673341  -6399.089192     31.170620
PR02  12735.828532  -5970.461804 -21252.743496    326.917309
PR03  -5524.280956 -12866.585104 -21271.075339    141.724026
PR04 -20835.907296 -12010.678402  -8462.698927    274.095865
PR05 -23624.773734  -4434.602713   8519.333116      9.270715
PR07   6021.069723  12995.598906  21151.486755    -45.812405
PR08  20406.184857  12273.580358   9202.138972     21.580809
PR09 -18386.916792  17311.615130  -3838.307245     25.494251
PR10  -6858.880490  16390.412524 -18357.358846     30.580155
PR11   9787.461283   6075.799713 -22733.836263    -39.098488
PR13  18258.034078 -17457.666490   3475.263552    -14.059589
PR14   6650.893861 -16570.123519  18224.197109     30.473030
PR15  -5824.063797  -9024.043311  23151.178818    -15.405880
PR16 -19538.425781   7444.606348  14520.008423    100.356695
PR17  -2115.224962 -25087.333766   4235.226296    159.653927
PR18  -9088.447872 -20250.404560 -12513.141367    208.468241
PR19 -10948.975740  -4441.376311 -22613.476526    -58.658521
PR20  -6492.442406  15628.081847 -19103.225909   -350.264862
PR21   2332.925653  25094.613515  -3840.801095     -0.337122
PR22   9595.254536  18866.721286  14323.829456    -60.389992
PR23  10591.627568   -406.718012  23187.478448    174.729424
PR24   5765.526591 -16684.711047  18378.192998   -170.659910
PR26  -6728.829079  14606.375653 -19783.309727     43.848066
EOF
